IRIDIUM 159             
1 43578U 18061K   24066.44919265  .00000103  00000+0  29763-4 0  9995
2 43578  86.3955  44.7028 0002166  85.0518 275.0925 14.34216514294020
IRIDIUM 180             
1 43922U 19002A   24066.30916138  .00000471  00000+0  16119-3 0  9993
2 43922  86.4022 341.6799 0002154  83.1957 276.9484 14.34218084269617
IRIDIUM 176             
1 43923U 19002B   24066.28257105  .00001778  00000+0  27772-3 0  9991
2 43923  86.6149 341.7192 0002636  86.0554 274.0964 14.72294558276700
IRIDIUM 168             
1 43924U 19002C   24066.37257923  .00000202  00000+0  64951-4 0  9992
2 43924  86.4022 341.7072 0002111  83.2095 276.9341 14.34218682269606
IRIDIUM 173             
1 43925U 19002D   24066.29012045  .00000442  00000+0  15091-3 0  9994
2 43925  86.4020 341.6646 0002111  83.8156 276.3281 14.34217415269571
IRIDIUM 169             
1 43926U 19002E   24066.39149154  .00000619  00000+0  19572-3 0  9992
2 43926  86.4273  13.2099 0002247 153.1375 206.9939 14.38613405270495
IRIDIUM 172             
1 43927U 19002F   24066.28378305  .00000275  00000+0  91039-4 0  9990
2 43927  86.4021 341.6727 0002241  83.6875 276.4576 14.34219311269580
IRIDIUM 175             
1 43928U 19002G   24066.20878929  .00001589  00000+0  24781-3 0  9998
2 43928  86.1531 320.7225 0002265  84.8059 275.3416 14.72278244276680
